start=new Date('2023-01-31T00:00:00.000Z').valueOf();
sats=[{"PERIAPSIS":"561.818","LAUNCH_DATE":"2022-08-31","CENTER_NAME":"EARTH","INCLINATION":"97.6561","SEMIMAJOR_AXIS":"6941.132","MEAN_ANOMALY":"257.6351","OBJECT_TYPE":"PAYLOAD","SITE":"AFWTR","ELEMENT_SET_NO":"999","MEAN_MOTION":"15.01264950","REV_AT_EPOCH":"2313","GP_ID":"224056132","ARG_OF_PERICENTER":"102.5063","EPHEMERIS_TYPE":"0","FILE":"3765849","TIME_SYSTEM":"UTC","RCS_SIZE":"LARGE","RA_OF_ASC_NODE":"273.9359","NORAD_CAT_ID":"53678","APOAPSIS":"564.175","TLE_LINE1":"1 53678U 22105AG  23030.90849987  .00001550  00000-0  12524-3 0  9999","COUNTRY_CODE":"US","MEAN_ELEMENT_THEORY":"SGP4","MEAN_MOTION_DDOT":"0.0000000000000","OBJECT_NAME":"STARLINK-4418","BSTAR":"0.00012524000000","MEAN_MOTION_DOT":"0.00001550","REF_FRAME":"TEME","EPOCH":"2023-01-30T21:48:14.388768","OBJECT_ID":"2022-105AG","DECAY_DATE":null,"ECCENTRICITY":"0.00016980","CLASSIFICATION_TYPE":"U","TLE_LINE2":"2 53678  97.6561 273.9359 0001698 102.5063 257.6351 15.01264950 23135","PERIOD":"95.919"},{"SEMIMAJOR_AXIS":"6941.137","MEAN_ANOMALY":"262.6050","CENTER_NAME":"EARTH","PERIAPSIS":"562.002","LAUNCH_DATE":"2022-08-31","INCLINATION":"97.6561","FILE":"3765849","EPHEMERIS_TYPE":"0","REV_AT_EPOCH":"2313","GP_ID":"224056381","ARG_OF_PERICENTER":"97.5337","MEAN_MOTION":"15.01263220","TLE_LINE1":"1 53679U 22105AH  23030.91220463  .00000792  00000-0  66211-4 0  9993","APOAPSIS":"564.001","NORAD_CAT_ID":"53679","RCS_SIZE":"LARGE","RA_OF_ASC_NODE":"273.9388","TIME_SYSTEM":"UTC","ELEMENT_SET_NO":"999","SITE":"AFWTR","OBJECT_TYPE":"PAYLOAD","DECAY_DATE":null,"EPOCH":"2023-01-30T21:53:34.480032","OBJECT_ID":"2022-105AH","REF_FRAME":"TEME","MEAN_ELEMENT_THEORY":"SGP4","MEAN_MOTION_DDOT":"0.0000000000000","OBJECT_NAME":"STARLINK-4632","COUNTRY_CODE":"US","MEAN_MOTION_DOT":"0.00000792","BSTAR":"0.00006621100000","TLE_LINE2":"2 53679  97.6561 273.9388 0001440  97.5337 262.6050 15.01263220 23131","PERIOD":"95.919","CLASSIFICATION_TYPE":"U","ECCENTRICITY":"0.00014400"},{"BSTAR":"0.00011308000000","MEAN_MOTION_DOT":"0.00001394","COUNTRY_CODE":"US","MEAN_MOTION_DDOT":"0.0000000000000","MEAN_ELEMENT_THEORY":"SGP4","OBJECT_NAME":"STARLINK-4630","REF_FRAME":"TEME","OBJECT_ID":"2022-105AJ","EPOCH":"2023-01-30T21:42:54.481536","DECAY_DATE":null,"ECCENTRICITY":"0.00014690","CLASSIFICATION_TYPE":"U","PERIOD":"95.919","TLE_LINE2":"2 53680  97.6563 273.9314 0001469  98.5315 261.6076 15.01264981 23134","INCLINATION":"97.6563","PERIAPSIS":"561.977","LAUNCH_DATE":"2022-08-31","CENTER_NAME":"EARTH","MEAN_ANOMALY":"261.6076","SEMIMAJOR_AXIS":"6941.131","OBJECT_TYPE":"PAYLOAD","SITE":"AFWTR","ELEMENT_SET_NO":"999","TIME_SYSTEM":"UTC","RCS_SIZE":"LARGE","RA_OF_ASC_NODE":"273.9314","NORAD_CAT_ID":"53680","APOAPSIS":"564.016","TLE_LINE1":"1 53680U 22105AJ  23030.90479724  .00001394  00000-0  11308-3 0  9995","MEAN_MOTION":"15.01264981","GP_ID":"224057624","ARG_OF_PERICENTER":"98.5315","REV_AT_EPOCH":"2313","FILE":"3765849","EPHEMERIS_TYPE":"0"},{"ECCENTRICITY":"0.00016320","CLASSIFICATION_TYPE":"U","PERIOD":"95.920","TLE_LINE2":"2 53681  97.6547 273.9313 0001632  55.3158 304.8220 15.01258239 23134","BSTAR":"-0.00004892100000","MEAN_MOTION_DOT":"-0.00000687","COUNTRY_CODE":"US","MEAN_ELEMENT_THEORY":"SGP4","MEAN_MOTION_DDOT":"0.0000000000000","OBJECT_NAME":"STARLINK-4424","REF_FRAME":"TEME","OBJECT_ID":"2022-105AK","EPOCH":"2023-01-30T21:48:35.066880","DECAY_DATE":null,"OBJECT_TYPE":"PAYLOAD","SITE":"AFWTR","ELEMENT_SET_NO":"999","RA_OF_ASC_NODE":"273.9313","RCS_SIZE":"LARGE","TIME_SYSTEM":"UTC","NORAD_CAT_ID":"53681","APOAPSIS":"564.150","TLE_LINE1":"1 53681U 22105AK  23030.90873920 -.00000687  00000-0 -48921-4 0  9990","MEAN_MOTION":"15.01258239","ARG_OF_PERICENTER":"55.3158","GP_ID":"224057872","REV_AT_EPOCH":"2313","EPHEMERIS_TYPE":"0","FILE":"3765849","INCLINATION":"97.6547","LAUNCH_DATE":"2022-08-31","PERIAPSIS":"561.884","CENTER_NAME":"EARTH","MEAN_ANOMALY":"304.8220","SEMIMAJOR_AXIS":"6941.152"},{"ARG_OF_PERICENTER":"97.7796","GP_ID":"223998434","REV_AT_EPOCH":"2303","MEAN_MOTION":"15.01252476","FILE":"3765576","EPHEMERIS_TYPE":"0","NORAD_CAT_ID":"53682","APOAPSIS":"564.064","RCS_SIZE":"LARGE","RA_OF_ASC_NODE":"273.2722","TIME_SYSTEM":"UTC","TLE_LINE1":"1 53682U 22105AL  23030.23482282 -.00000720  00000-0 -51452-4 0  9995","SITE":"AFWTR","OBJECT_TYPE":"PAYLOAD","ELEMENT_SET_NO":"999","SEMIMAJOR_AXIS":"6941.170","MEAN_ANOMALY":"262.3596","PERIAPSIS":"562.006","LAUNCH_DATE":"2022-08-31","CENTER_NAME":"EARTH","INCLINATION":"97.6565","TLE_LINE2":"2 53682  97.6565 273.2722 0001482  97.7796 262.3596 15.01252476 23033","PERIOD":"95.920","ECCENTRICITY":"0.00014820","CLASSIFICATION_TYPE":"U","EPOCH":"2023-01-30T05:38:08.691648","OBJECT_ID":"2022-105AL","REF_FRAME":"TEME","DECAY_DATE":null,"MEAN_MOTION_DDOT":"0.0000000000000","MEAN_ELEMENT_THEORY":"SGP4","OBJECT_NAME":"STARLINK-4438","COUNTRY_CODE":"US","MEAN_MOTION_DOT":"-0.00000720","BSTAR":"-0.00005145200000"},{"PERIOD":"95.919","TLE_LINE2":"2 53683  97.6559 273.9355 0001451  99.7708 260.3680 15.01264485 23133","CLASSIFICATION_TYPE":"U","ECCENTRICITY":"0.00014510","DECAY_DATE":null,"REF_FRAME":"TEME","EPOCH":"2023-01-30T21:45:34.552224","OBJECT_ID":"2022-105AM","BSTAR":"0.00011120000000","MEAN_MOTION_DOT":"0.00001370","COUNTRY_CODE":"US","MEAN_ELEMENT_THEORY":"SGP4","MEAN_MOTION_DDOT":"0.0000000000000","OBJECT_NAME":"STARLINK-4625","TLE_LINE1":"1 53683U 22105AM  23030.90664991  .00001370  00000-0  11120-3 0  9996","TIME_SYSTEM":"UTC","RCS_SIZE":"LARGE","RA_OF_ASC_NODE":"273.9355","APOAPSIS":"564.005","NORAD_CAT_ID":"53683","FILE":"3765849","EPHEMERIS_TYPE":"0","MEAN_MOTION":"15.01264485","GP_ID":"224056880","ARG_OF_PERICENTER":"99.7708","REV_AT_EPOCH":"2313","ELEMENT_SET_NO":"999","OBJECT_TYPE":"PAYLOAD","SITE":"AFWTR","MEAN_ANOMALY":"260.3680","SEMIMAJOR_AXIS":"6941.133","INCLINATION":"97.6559","CENTER_NAME":"EARTH","LAUNCH_DATE":"2022-08-31","PERIAPSIS":"561.991"},{"ELEMENT_SET_NO":"999","OBJECT_TYPE":"PAYLOAD","SITE":"AFWTR","TLE_LINE1":"1 53684U 22105AN  23030.81987119  .00001515  00000-0  12250-3 0  9993","RCS_SIZE":"LARGE","RA_OF_ASC_NODE":"273.8652","TIME_SYSTEM":"UTC","APOAPSIS":"564.818","NORAD_CAT_ID":"53684","EPHEMERIS_TYPE":"0","FILE":"3765849","MEAN_MOTION":"15.01272952","GP_ID":"224057128","REV_AT_EPOCH":"2311","ARG_OF_PERICENTER":"97.3190","INCLINATION":"97.6570","CENTER_NAME":"EARTH","LAUNCH_DATE":"2022-08-31","PERIAPSIS":"561.126","MEAN_ANOMALY":"262.8337","SEMIMAJOR_AXIS":"6941.107","CLASSIFICATION_TYPE":"U","ECCENTRICITY":"0.00026590","PERIOD":"95.919","TLE_LINE2":"2 53684  97.6570 273.8652 0002659  97.3190 262.8337 15.01272952 23118","BSTAR":"0.00012250000000","MEAN_MOTION_DOT":"0.00001515","COUNTRY_CODE":"US","MEAN_MOTION_DDOT":"0.0000000000000","MEAN_ELEMENT_THEORY":"SGP4","OBJECT_NAME":"STARLINK-4624","DECAY_DATE":null,"REF_FRAME":"TEME","EPOCH":"2023-01-30T19:40:36.870816","OBJECT_ID":"2022-105AN"},{"CLASSIFICATION_TYPE":"U","ECCENTRICITY":"0.00014120","PERIOD":"95.919","TLE_LINE2":"2 53685  97.6560 273.9306 0001412  99.1456 260.9928 15.01263002 23139","BSTAR":"0.00007468200000","MEAN_MOTION_DOT":"0.00000900","COUNTRY_CODE":"US","MEAN_MOTION_DDOT":"0.0000000000000","OBJECT_NAME":"STARLINK-4626","MEAN_ELEMENT_THEORY":"SGP4","DECAY_DATE":null,"REF_FRAME":"TEME","OBJECT_ID":"2022-105AP","EPOCH":"2023-01-30T21:40:14.568960","ELEMENT_SET_NO":"999","OBJECT_TYPE":"PAYLOAD","SITE":"AFWTR","TLE_LINE1":"1 53685U 22105AP  23030.90294640  .00000900  00000-0  74682-4 0  9999","RCS_SIZE":"LARGE","RA_OF_ASC_NODE":"273.9306","TIME_SYSTEM":"UTC","APOAPSIS":"563.983","NORAD_CAT_ID":"53685","EPHEMERIS_TYPE":"0","FILE":"3765849","MEAN_MOTION":"15.01263002","GP_ID":"224057376","REV_AT_EPOCH":"2313","ARG_OF_PERICENTER":"99.1456","INCLINATION":"97.6560","CENTER_NAME":"EARTH","LAUNCH_DATE":"2022-08-31","PERIAPSIS":"562.023","MEAN_ANOMALY":"260.9928","SEMIMAJOR_AXIS":"6941.138"},{"MEAN_ANOMALY":"265.9438","SEMIMAJOR_AXIS":"6941.120","INCLINATION":"97.6574","LAUNCH_DATE":"2022-08-31","PERIAPSIS":"561.778","CENTER_NAME":"EARTH","RCS_SIZE":"LARGE","RA_OF_ASC_NODE":"273.8605","TIME_SYSTEM":"UTC","APOAPSIS":"564.192","NORAD_CAT_ID":"53686","TLE_LINE1":"1 53686U 22105AQ  23030.83259117  .00003566  00000-0  28199-3 0  9994","MEAN_MOTION":"15.01268722","GP_ID":"224056133","ARG_OF_PERICENTER":"94.1984","REV_AT_EPOCH":"2312","EPHEMERIS_TYPE":"0","FILE":"3765849","OBJECT_TYPE":"PAYLOAD","SITE":"AFWTR","ELEMENT_SET_NO":"999","REF_FRAME":"TEME","OBJECT_ID":"2022-105AQ","EPOCH":"2023-01-30T19:58:55.877088","DECAY_DATE":null,"BSTAR":"0.00028199000000","MEAN_MOTION_DOT":"0.00003566","COUNTRY_CODE":"US","MEAN_MOTION_DDOT":"0.0000000000000","MEAN_ELEMENT_THEORY":"SGP4","OBJECT_NAME":"STARLINK-4467","PERIOD":"95.919","TLE_LINE2":"2 53686  97.6574 273.8605 0001739  94.1984 265.9438 15.01268722 23123","ECCENTRICITY":"0.00017390","CLASSIFICATION_TYPE":"U"},{"REF_FRAME":"TEME","EPOCH":"2023-01-30T15:13:39.766656","OBJECT_ID":"2022-105AR","DECAY_DATE":null,"BSTAR":"0.00011634000000","MEAN_MOTION_DOT":"0.00001436","COUNTRY_CODE":"US","MEAN_ELEMENT_THEORY":"SGP4","MEAN_MOTION_DDOT":"0.0000000000000","OBJECT_NAME":"STARLINK-4569","PERIOD":"95.919","TLE_LINE2":"2 53687  97.6566 273.6650 0001692  87.0804 273.0614 15.01263032 23094","ECCENTRICITY":"0.00016920","CLASSIFICATION_TYPE":"U","MEAN_ANOMALY":"273.0614","SEMIMAJOR_AXIS":"6941.138","INCLINATION":"97.6566","PERIAPSIS":"561.828","LAUNCH_DATE":"2022-08-31","CENTER_NAME":"EARTH","TIME_SYSTEM":"UTC","RCS_SIZE":"LARGE","RA_OF_ASC_NODE":"273.6650","APOAPSIS":"564.177","NORAD_CAT_ID":"53687","TLE_LINE1":"1 53687U 22105AR  23030.63448804  .00001436  00000-0  11634-3 0  9996","MEAN_MOTION":"15.01263032","GP_ID":"224056382","ARG_OF_PERICENTER":"87.0804","REV_AT_EPOCH":"2309","EPHEMERIS_TYPE":"0","FILE":"3765849","OBJECT_TYPE":"PAYLOAD","SITE":"AFWTR","ELEMENT_SET_NO":"999"}];
